[{"OBJECT_NAME":"STARLINK-5129","OBJECT_ID":"2022-125AS","EPOCH":"2026-03-09T16:00:51.698592","MEAN_MOTION":15.08841133,"ECCENTRICITY":0.00012676,"INCLINATION":53.2163,"RA_OF_ASC_NODE":213.9052,"ARG_OF_PERICENTER":84.1601,"MEAN_ANOMALY":275.9536,"EPHEMERIS_TYPE":0,"CLASSIFICATION_TYPE":"U","NORAD_CAT_ID":54004,"ELEMENT_SET_NO":999,"REV_AT_EPOCH":18946,"BSTAR":2.1352404e-5,"MEAN_MOTION_DOT":5.2e-7,"MEAN_MOTION_DDOT":0},{"OBJECT_NAME":"DISKSAT C","OBJECT_ID":"2025-305A","EPOCH":"2026-03-09T19:16:32.318976","MEAN_MOTION":15.07852977,"ECCENTRICITY":0.00045341,"INCLINATION":45.0017,"RA_OF_ASC_NODE":250.1278,"ARG_OF_PERICENTER":310.7706,"MEAN_ANOMALY":49.2776,"EPHEMERIS_TYPE":0,"CLASSIFICATION_TYPE":"U","NORAD_CAT_ID":67219,"ELEMENT_SET_NO":999,"REV_AT_EPOCH":1231,"BSTAR":0.00075564202,"MEAN_MOTION_DOT":0.00011541,"MEAN_MOTION_DDOT":0}]
